LEMUR-2-ALISIA          
1 62706U 25009DB  26068.73770453  .00009177  00000+0  72005-3 0  9995
2 62706  97.7037 151.6973 0006582 159.9869 200.1615 15.01147598 85230
STARLINK-35837          
1 66840U 25280V   26068.88984179  .00004917  00000+0  41961-3 0  9991
2 66840  70.0022 334.0388 0002934 271.4560  88.6263 14.98331300 16102
